NORAD_CAT_ID,OBJECT_NAME,OBJECT_TYPE,EPOCH,MEAN_MOTION,ECCENTRICITY,INCLINATION,RA_OF_ASC_NODE,ARG_OF_PERICENTER,MEAN_ANOMALY,BSTAR,MEAN_MOTION_DOT,MEAN_MOTION_DDOT,TLE_LINE0,TLE_LINE1,TLE_LINE2,SEMIMAJOR_AXIS,PERIOD,APOGEE,PERIGEE,DECAYED
53175.0,STARLINK-4292,PAYLOAD,2023-09-16 07:40:55,15.08860872,0.0001444,53.2147,278.4858,81.5932,278.5224,0.00076735,0.00011952,0.0,0 STARLINK-4292,1 53175U 22083AV  23259.32009212  .00011952  00000-0  76735-3 0  9995,2 53175  53.2147 278.4858 0001444  81.5932 278.5224 15.08860872 65172,6917.817,95.436,540.681,538.683,0.0
53175.0,STARLINK-4292,PAYLOAD,2023-09-16 18:48:37,15.08857631,0.0001484,53.2143,276.4045,77.3126,282.8032,0.00035523,5.373e-05,0.0,0 STARLINK-4292,1 53175U 22083AV  23259.78376877  .00005373  00000-0  35523-3 0  9999,2 53175  53.2143 276.4045 0001484  77.3126 282.8032 15.08857631 65248,6917.826,95.436,540.718,538.665,0.0
53175.0,STARLINK-4292,PAYLOAD,2023-09-17 10:42:28,15.08851757,0.0001637,53.2154,273.4306,79.4702,280.6474,0.00019859,2.875e-05,0.0,0 STARLINK-4292,1 53175U 22083AV  23260.44616863  .00002875  00000-0  19859-3 0  9994,2 53175  53.2154 273.4306 0001637  79.4702 280.6474 15.08851757 64709,6917.844,95.437,540.842,538.577,0.0
53175.0,STARLINK-4292,PAYLOAD,2023-09-18 01:00:57,15.08842406,0.0001427,53.2151,270.7513,104.2344,255.8807,1.0643e-05,-1.19e-06,0.0,0 STARLINK-4292,1 53175U 22083AV  23261.04232841 -.00000119  00000-0  10643-4 0  9994,2 53175  53.2151 270.7513 0001427 104.2344 255.8807 15.08842406 65438,6917.873,95.437,540.725,538.751,0.0
53175.0,STARLINK-4292,PAYLOAD,2023-09-18 07:22:29,15.08850216,0.0001493,53.2163,269.5627,107.6489,252.4667,-2.8345e-05,-7.39e-06,0.0,0 STARLINK-4292,1 53175U 22083AV  23261.30728637 -.00000739  00000-0 -28345-4 0  9993,2 53175  53.2163 269.5627 0001493 107.6489 252.4667 15.08850216 64831,6917.849,95.437,540.747,538.681,0.0
53175.0,STARLINK-4292,PAYLOAD,2023-09-19 10:24:02,15.08848055,0.0001463,53.216,264.5071,101.9399,258.1757,0.00010818,1.435e-05,0.0,0 STARLINK-4292,1 53175U 22083AV  23262.43336173  .00001435  00000-0  10818-3 0  9995,2 53175  53.2160 264.5071 0001463 101.9399 258.1757 15.08848055 65641,6917.856,95.437,540.733,538.709,0.0
53175.0,STARLINK-4292,PAYLOAD,2023-09-19 16:45:35,15.08842138,0.0001478,53.2155,263.3171,98.6452,261.4708,4.6164e-05,4.47e-06,0.0,0 STARLINK-4292,1 53175U 22083AV  23262.69832547  .00000447  00000-0  46164-4 0  9995,2 53175  53.2155 263.3171 0001478  98.6452 261.4708 15.08842138 65684,6917.874,95.437,540.761,538.716,0.0
53175.0,STARLINK-4292,PAYLOAD,2023-09-20 00:42:31,15.08833139,0.0001684,53.2159,261.8331,95.2256,264.8928,-3.5964e-05,-8.6e-06,0.0,0 STARLINK-4292,1 53175U 22083AV  23263.02953240 -.00000860  00000-0 -35964-4 0  9994,2 53175  53.2159 261.8331 0001684  95.2256 264.8928 15.08833139 65731,6917.901,95.438,540.931,538.601,0.0
53175.0,STARLINK-4292,PAYLOAD,2023-09-20 05:28:41,15.08831558,0.0001532,53.2161,260.9417,96.8871,263.2296,-5.3005e-05,-1.131e-05,0.0,0 STARLINK-4292,1 53175U 22083AV  23263.22825399 -.00001131  00000-0 -53005-4 0  9997,2 53175  53.2161 260.9417 0001532  96.8871 263.2296 15.08831558 65128,6917.906,95.438,540.831,538.711,0.0
53175.0,STARLINK-4292,PAYLOAD,2023-09-20 16:36:23,15.08830564,0.0001631,53.2172,258.8602,99.2866,260.8311,-4.4887e-05,-1.002e-05,0.0,0 STARLINK-4292,1 53175U 22083AV  23263.69193679 -.00001002  00000-0 -44887-4 0  9992,2 53175  53.2172 258.8602 0001631  99.2866 260.8311 15.08830564 65197,6917.909,95.438,540.903,538.646,0.0
53175.0,STARLINK-4292,PAYLOAD,2023-09-21 08:30:14,15.08834882,0.0001471,53.2169,255.887,93.347,266.769,1.1563e-05,-1.04e-06,0.0,0 STARLINK-4292,1 53175U 22083AV  23264.35433787 -.00000104  00000-0  11563-4 0  9999,2 53175  53.2169 255.8870 0001471  93.3470 266.7690 15.08834882 65939,6917.896,95.438,540.779,538.743,0.0
53175.0,STARLINK-4292,PAYLOAD,2023-09-21 16:27:10,15.08838438,0.0001432,53.2164,254.3998,94.8069,265.3087,4.2206e-05,3.84e-06,0.0,0 STARLINK-4292,1 53175U 22083AV  23264.68553700  .00000384  00000-0  42206-4 0  9990,2 53175  53.2164 254.3998 0001432  94.8069 265.3087 15.08838438 65347,6917.885,95.438,540.741,538.76,0.0
53175.0,STARLINK-4292,PAYLOAD,2023-09-22 06:45:38,15.08845059,0.000137,53.2159,251.7224,87.6479,272.467,0.00026682,3.962e-05,0.0,0 STARLINK-4292,1 53175U 22083AV  23265.28169613  .00003962  00000-0  26682-3 0  9997,2 53175  53.2159 251.7224 0001370  87.6479 272.4670 15.08845059 66075,6917.865,95.437,540.678,538.782,0.0
53175.0,STARLINK-4292,PAYLOAD,2023-09-22 11:31:47,15.08850124,0.0001368,53.2156,250.8302,87.9398,272.175,0.0003188,4.791e-05,0.0,0 STARLINK-4292,1 53175U 22083AV  23265.48041352  .00004791  00000-0  31880-3 0  9995,2 53175  53.2156 250.8302 0001368  87.9398 272.1750 15.08850124 65466,6917.849,95.437,540.661,538.768,0.0
53175.0,STARLINK-4292,PAYLOAD,2023-09-22 16:17:57,15.08844864,0.0001369,53.2162,249.939,92.2821,267.8328,0.00024524,3.618e-05,0.0,0 STARLINK-4292,1 53175U 22083AV  23265.67913672  .00003618  00000-0  24524-3 0  9993,2 53175  53.2162 249.9390 0001369  92.2821 267.8328 15.08844864 65499,6917.866,95.437,540.678,538.783,0.0
53175.0,STARLINK-4292,PAYLOAD,2023-09-22 22:39:30,15.08841911,0.0001251,53.2148,248.746,93.2129,266.9006,0.00020045,2.904e-05,0.0,0 STARLINK-4292,1 53175U 22083AV  23265.94409730  .00002904  00000-0  20045-3 0  9999,2 53175  53.2148 248.7460 0001251  93.2129 266.9006 15.08841911 66179,6917.875,95.437,540.605,538.874,0.0
53175.0,STARLINK-4292,PAYLOAD,2023-09-23 08:11:48,15.08857716,0.0001352,53.2152,246.9641,92.489,267.6257,0.00040428,6.155e-05,0.0,0 STARLINK-4292,1 53175U 22083AV  23266.34153066  .00006155  00000-0  40428-3 0  9991,2 53175  53.2152 246.9641 0001352  92.4890 267.6257 15.08857716 66236,6917.826,95.436,540.627,538.756,0.0
53175.0,STARLINK-4292,PAYLOAD,2023-09-23 16:08:44,15.08846972,0.0001484,53.2153,245.4776,85.3605,274.7556,0.00016815,2.39e-05,0.0,0 STARLINK-4292,1 53175U 22083AV  23266.67273391  .00002390  00000-0  16815-3 0  9991,2 53175  53.2153 245.4776 0001484  85.3605 274.7556 15.08846972 66289,6917.859,95.437,540.751,538.697,0.0
53175.0,STARLINK-4292,PAYLOAD,2023-09-24 04:51:49,15.08846119,0.0001368,53.2152,243.0941,99.6069,260.5077,0.00011075,1.475e-05,0.0,0 STARLINK-4292,1 53175U 22083AV  23267.20265258  .00001475  00000-0  11075-3 0  9990,2 53175  53.2152 243.0941 0001368  99.6069 260.5077 15.08846119 65721,6917.862,95.437,540.673,538.78,0.0
53175.0,STARLINK-4292,PAYLOAD,2023-09-24 22:21:04,15.0884253,0.0001391,53.2146,239.8266,93.3721,266.7431,0.00017209,2.452e-05,0.0,0 STARLINK-4292,1 53175U 22083AV  23267.93129630  .00002452  00000-0  17209-3 0  9994,2 53175  53.2146 239.8266 0001391  93.3721 266.7431 15.08842530 65836,6917.873,95.437,540.7,538.775,0.0
53175.0,STARLINK-4292,PAYLOAD,2023-09-25 07:53:22,15.0885483,0.0001419,53.2148,238.0407,98.4689,261.6464,0.00049215,7.556e-05,0.0,0 STARLINK-4292,1 53175U 22083AV  23268.32873203  .00007556  00000-0  49215-3 0  9992,2 53175  53.2148 238.0407 0001419  98.4689 261.6464 15.08854830 66530,6917.835,95.437,540.682,538.718,0.0
53175.0,STARLINK-4292,PAYLOAD,2023-09-26 02:57:59,15.08855182,0.0001566,53.2158,234.4718,102.8802,257.2365,0.00035933,5.438e-05,0.0,0 STARLINK-4292,1 53175U 22083AV  23269.12360815  .00005438  00000-0  35933-3 0  9990,2 53175  53.2158 234.4718 0001566 102.8802 257.2365 15.08855182 66651,6917.834,95.437,540.782,538.616,0.0
53175.0,STARLINK-4292,PAYLOAD,2023-09-26 04:33:22,15.08857323,0.0001619,53.2161,234.1746,103.1712,256.9461,0.00039913,6.073e-05,0.0,0 STARLINK-4292,1 53175U 22083AV  23269.18984710  .00006073  00000-0  39913-3 0  9990,2 53175  53.2161 234.1746 0001619 103.1712 256.9461 15.08857323 66029,6917.827,95.436,540.812,538.572,0.0
53175.0,STARLINK-4292,PAYLOAD,2023-09-27 01:13:24,15.08836649,0.000135,53.2155,230.3079,112.9734,247.14,-9.0637e-05,-1.73e-05,0.0,0 STARLINK-4292,1 53175U 22083AV  23270.05097223 -.00001730  00000-0 -90637-4 0  9990,2 53175  53.2155 230.3079 0001350 112.9734 247.1400 15.08836649 66790,6917.891,95.438,540.69,538.822,0.0
53175.0,STARLINK-4292,PAYLOAD,2023-09-27 07:34:56,15.08838214,0.0001404,53.2154,229.118,114.6704,245.4435,-3.4206e-05,-8.32e-06,0.0,0 STARLINK-4292,1 53175U 22083AV  23270.31593241 -.00000832  00000-0 -34206-4 0  9992,2 53175  53.2154 229.1180 0001404 114.6704 245.4435 15.08838214 66197,6917.886,95.438,540.722,538.78,0.0
53175.0,STARLINK-4292,PAYLOAD,2023-09-28 02:39:35,15.0882481,0.0001266,53.2151,225.5562,92.4482,267.6656,-0.00020789,-3.593e-05,0.0,0 STARLINK-4292,1 53175U 22083AV  23271.11082577 -.00003593  00000-0 -20789-3 0  9993,2 53175  53.2151 225.5562 0001266  92.4482 267.6656 15.08824810 66952,6917.927,95.439,540.668,538.916,0.0
53175.0,STARLINK-4292,PAYLOAD,2023-09-28 07:25:44,15.08828616,0.000126,53.2156,224.6597,97.5024,262.6111,-0.00013216,-2.39e-05,0.0,0 STARLINK-4292,1 53175U 22083AV  23271.30954492 -.00002390  00000-0 -13216-3 0  9999,2 53175  53.2156 224.6597 0001260  97.5024 262.6111 15.08828616 66349,6917.915,95.438,540.652,538.909,0.0
53175.0,STARLINK-4292,PAYLOAD,2023-09-28 23:19:36,15.08835198,9.54e-05,53.2166,221.6881,81.1813,278.9287,0.00023824,3.505e-05,0.0,0 STARLINK-4292,1 53175U 22083AV  23271.97194835  .00003505  00000-0  23824-3 0  9992,2 53175  53.2166 221.6881 0000954  81.1813 278.9287 15.08835198 67086,6917.895,95.438,540.42,539.1,0.0
53175.0,STARLINK-4292,PAYLOAD,2023-09-29 05:41:08,15.0885022,0.0001105,53.2159,220.4966,98.9939,261.1178,0.00050586,7.774e-05,0.0,0 STARLINK-4292,1 53175U 22083AV  23272.23690384  .00007774  00000-0  50586-3 0  9999,2 53175  53.2159 220.4966 0001105  98.9939 261.1178 15.08850220 67124,6917.849,95.437,540.479,538.95,0.0
53175.0,STARLINK-4292,PAYLOAD,2023-09-30 03:56:32,15.08855549,0.0001564,53.2162,216.3352,68.4565,291.6594,0.00037918,5.754e-05,0.0,0 STARLINK-4292,1 53175U 22083AV  23273.16426075  .00005754  00000-0  37918-3 0  9996,2 53175  53.2162 216.3352 0001564  68.4565 291.6594 15.08855549 67261,6917.833,95.437,540.78,538.616,0.0
